[{"OBJECT_NAME":"YAOGAN-30 04A","OBJECT_ID":"2017-085A","EPOCH":"2026-03-10T00:12:03.633696","MEAN_MOTION":15.02145245,"ECCENTRICITY":0.00047902,"INCLINATION":34.9971,"RA_OF_ASC_NODE":34.3088,"ARG_OF_PERICENTER":351.1621,"MEAN_ANOMALY":8.9003,"EPHEMERIS_TYPE":0,"CLASSIFICATION_TYPE":"U","NORAD_CAT_ID":43081,"ELEMENT_SET_NO":999,"REV_AT_EPOCH":44779,"BSTAR":0.00033587992,"MEAN_MOTION_DOT":4.482e-5,"MEAN_MOTION_DDOT":0},{"OBJECT_NAME":"STARLINK-4435","OBJECT_ID":"2022-099AP","EPOCH":"2026-03-09T21:46:55.623936","MEAN_MOTION":15.0565086,"ECCENTRICITY":6.72e-5,"INCLINATION":97.6016,"RA_OF_ASC_NODE":191.4245,"ARG_OF_PERICENTER":252.2483,"MEAN_ANOMALY":107.867,"EPHEMERIS_TYPE":0,"CLASSIFICATION_TYPE":"U","NORAD_CAT_ID":53502,"ELEMENT_SET_NO":999,"REV_AT_EPOCH":19608,"BSTAR":0.00010213444,"MEAN_MOTION_DOT":1.413e-5,"MEAN_MOTION_DDOT":0}]
